[{"OBJECT_NAME":"OBJECT G","OBJECT_ID":"2025-155G","EPOCH":"2026-03-09T22:09:56.639808","MEAN_MOTION":15.27590702,"ECCENTRICITY":0.00081871,"INCLINATION":97.4488,"RA_OF_ASC_NODE":37.3259,"ARG_OF_PERICENTER":154.1528,"MEAN_ANOMALY":206.0122,"EPHEMERIS_TYPE":0,"CLASSIFICATION_TYPE":"U","NORAD_CAT_ID":64882,"ELEMENT_SET_NO":999,"REV_AT_EPOCH":6559,"BSTAR":0.0004792617,"MEAN_MOTION_DOT":0.00012876,"MEAN_MOTION_DDOT":0},{"OBJECT_NAME":"STARLINK-36062","OBJECT_ID":"2025-278D","EPOCH":"2026-03-09T03:31:10.346592","MEAN_MOTION":15.27594512,"ECCENTRICITY":0.00010859,"INCLINATION":42.9972,"RA_OF_ASC_NODE":117.6427,"ARG_OF_PERICENTER":283.1516,"MEAN_ANOMALY":76.9215,"EPHEMERIS_TYPE":0,"CLASSIFICATION_TYPE":"U","NORAD_CAT_ID":66794,"ELEMENT_SET_NO":999,"REV_AT_EPOCH":1512,"BSTAR":0.0010821006,"MEAN_MOTION_DOT":0.00029648,"MEAN_MOTION_DDOT":0}]
